[{"OBJECT_NAME":"ONEWEB-0412","OBJECT_ID":"2021-132W","EPOCH":"2025-11-02T11:04:18.236352","MEAN_MOTION":13.18686659,"ECCENTRICITY":0.0001754,"INCLINATION":87.923,"RA_OF_ASC_NODE":20.4861,"ARG_OF_PERICENTER":112.5379,"MEAN_ANOMALY":247.5939,"EPHEMERIS_TYPE":0,"CLASSIFICATION_TYPE":"U","NORAD_CAT_ID":50489,"ELEMENT_SET_NO":999,"REV_AT_EPOCH":19177,"BSTAR":0.0001103,"MEAN_MOTION_DOT":5.6e-7,"MEAN_MOTION_DDOT":0},{"OBJECT_NAME":"ONEWEB-0413","OBJECT_ID":"2021-132X","EPOCH":"2025-11-02T11:11:26.661984","MEAN_MOTION":13.18687167,"ECCENTRICITY":0.0001936,"INCLINATION":87.9215,"RA_OF_ASC_NODE":20.5013,"ARG_OF_PERICENTER":110.9109,"MEAN_ANOMALY":249.2231,"EPHEMERIS_TYPE":0,"CLASSIFICATION_TYPE":"U","NORAD_CAT_ID":50490,"ELEMENT_SET_NO":999,"REV_AT_EPOCH":19171,"BSTAR":0.00016373,"MEAN_MOTION_DOT":7.7e-7,"MEAN_MOTION_DDOT":0},{"OBJECT_NAME":"ONEWEB-0414","OBJECT_ID":"2021-132Y","EPOCH":"2025-11-02T10:50:04.028064","MEAN_MOTION":13.18687491,"ECCENTRICITY":0.0001659,"INCLINATION":87.9228,"RA_OF_ASC_NODE":20.4639,"ARG_OF_PERICENTER":105.8798,"MEAN_ANOMALY":254.2517,"EPHEMERIS_TYPE":0,"CLASSIFICATION_TYPE":"U","NORAD_CAT_ID":50491,"ELEMENT_SET_NO":999,"REV_AT_EPOCH":19174,"BSTAR":2.0756e-5,"MEAN_MOTION_DOT":2.1e-7,"MEAN_MOTION_DDOT":0},{"OBJECT_NAME":"ONEWEB-0417","OBJECT_ID":"2021-132Z","EPOCH":"2025-11-03T14:20:52.673568","MEAN_MOTION":13.18687424,"ECCENTRICITY":0.0001667,"INCLINATION":87.9231,"RA_OF_ASC_NODE":20.2703,"ARG_OF_PERICENTER":94.7561,"MEAN_ANOMALY":265.3762,"EPHEMERIS_TYPE":0,"CLASSIFICATION_TYPE":"U","NORAD_CAT_ID":50492,"ELEMENT_SET_NO":999,"REV_AT_EPOCH":19187,"BSTAR":4.8529e-5,"MEAN_MOTION_DOT":3.2e-7,"MEAN_MOTION_DDOT":0},{"OBJECT_NAME":"ONEWEB-0418","OBJECT_ID":"2021-132AA","EPOCH":"2025-11-03T16:24:12.093120","MEAN_MOTION":13.18687,"ECCENTRICITY":0.0001519,"INCLINATION":87.923,"RA_OF_ASC_NODE":20.2385,"ARG_OF_PERICENTER":86.4714,"MEAN_ANOMALY":273.6592,"EPHEMERIS_TYPE":0,"CLASSIFICATION_TYPE":"U","NORAD_CAT_ID":50493,"ELEMENT_SET_NO":999,"REV_AT_EPOCH":19194,"BSTAR":-8.8661e-6,"MEAN_MOTION_DOT":9.0e-8,"MEAN_MOTION_DDOT":0},{"OBJECT_NAME":"ONEWEB-0419","OBJECT_ID":"2021-132AB","EPOCH":"2025-11-03T15:01:15.410784","MEAN_MOTION":13.18686524,"ECCENTRICITY":0.0001849,"INCLINATION":87.9228,"RA_OF_ASC_NODE":20.2498,"ARG_OF_PERICENTER":91.0108,"MEAN_ANOMALY":269.1236,"EPHEMERIS_TYPE":0,"CLASSIFICATION_TYPE":"U","NORAD_CAT_ID":50494,"ELEMENT_SET_NO":999,"REV_AT_EPOCH":19185,"BSTAR":0.00013172,"MEAN_MOTION_DOT":6.5e-7,"MEAN_MOTION_DDOT":0},{"OBJECT_NAME":"ONEWEB-0420","OBJECT_ID":"2021-132AC","EPOCH":"2025-11-02T10:52:26.803200","MEAN_MOTION":13.18687255,"ECCENTRICITY":0.0002098,"INCLINATION":87.923,"RA_OF_ASC_NODE":20.4937,"ARG_OF_PERICENTER":108.6215,"MEAN_ANOMALY":251.5145,"EPHEMERIS_TYPE":0,"CLASSIFICATION_TYPE":"U","NORAD_CAT_ID":50495,"ELEMENT_SET_NO":999,"REV_AT_EPOCH":19169,"BSTAR":-4.4793e-5,"MEAN_MOTION_DOT":-5.0e-8,"MEAN_MOTION_DDOT":0},{"OBJECT_NAME":"ONEWEB-0421","OBJECT_ID":"2021-132AD","EPOCH":"2025-11-03T14:01:52.624704","MEAN_MOTION":13.18686052,"ECCENTRICITY":0.0001615,"INCLINATION":87.9226,"RA_OF_ASC_NODE":20.2627,"ARG_OF_PERICENTER":109.7541,"MEAN_ANOMALY":250.3765,"EPHEMERIS_TYPE":0,"CLASSIFICATION_TYPE":"U","NORAD_CAT_ID":50496,"ELEMENT_SET_NO":999,"REV_AT_EPOCH":19188,"BSTAR":-0.00021455,"MEAN_MOTION_DOT":-7.2e-7,"MEAN_MOTION_DDOT":0},{"OBJECT_NAME":"ONEWEB-0424","OBJECT_ID":"2021-132AE","EPOCH":"2025-11-02T11:35:12.255936","MEAN_MOTION":13.18685878,"ECCENTRICITY":0.0002115,"INCLINATION":87.9225,"RA_OF_ASC_NODE":20.4769,"ARG_OF_PERICENTER":91.1965,"MEAN_ANOMALY":268.9409,"EPHEMERIS_TYPE":0,"CLASSIFICATION_TYPE":"U","NORAD_CAT_ID":50497,"ELEMENT_SET_NO":999,"REV_AT_EPOCH":19176,"BSTAR":3.6071e-5,"MEAN_MOTION_DOT":2.7e-7,"MEAN_MOTION_DDOT":0},{"OBJECT_NAME":"ONEWEB-0426","OBJECT_ID":"2021-132AF","EPOCH":"2025-11-03T15:46:22.678752","MEAN_MOTION":13.18688049,"ECCENTRICITY":0.0001103,"INCLINATION":87.9225,"RA_OF_ASC_NODE":20.2348,"ARG_OF_PERICENTER":106.3305,"MEAN_ANOMALY":253.7949,"EPHEMERIS_TYPE":0,"CLASSIFICATION_TYPE":"U","NORAD_CAT_ID":50498,"ELEMENT_SET_NO":999,"REV_AT_EPOCH":19186,"BSTAR":-7.9147e-5,"MEAN_MOTION_DOT":-1.8e-7,"MEAN_MOTION_DDOT":0},{"OBJECT_NAME":"ONEWEB-0427","OBJECT_ID":"2021-132AG","EPOCH":"2025-11-02T11:32:48.297120","MEAN_MOTION":13.18687247,"ECCENTRICITY":0.0001747,"INCLINATION":87.9222,"RA_OF_ASC_NODE":20.4568,"ARG_OF_PERICENTER":94.5968,"MEAN_ANOMALY":265.5364,"EPHEMERIS_TYPE":0,"CLASSIFICATION_TYPE":"U","NORAD_CAT_ID":50499,"ELEMENT_SET_NO":999,"REV_AT_EPOCH":19173,"BSTAR":0.00016855,"MEAN_MOTION_DOT":7.9e-7,"MEAN_MOTION_DDOT":0},{"OBJECT_NAME":"ONEWEB-0429","OBJECT_ID":"2021-132AH","EPOCH":"2025-11-02T11:13:49.329120","MEAN_MOTION":13.18687699,"ECCENTRICITY":0.0001979,"INCLINATION":87.9224,"RA_OF_ASC_NODE":20.4907,"ARG_OF_PERICENTER":102.5089,"MEAN_ANOMALY":257.6264,"EPHEMERIS_TYPE":0,"CLASSIFICATION_TYPE":"U","NORAD_CAT_ID":50500,"ELEMENT_SET_NO":999,"REV_AT_EPOCH":19170,"BSTAR":0.00036213,"MEAN_MOTION_DOT":1.56e-6,"MEAN_MOTION_DDOT":0},{"OBJECT_NAME":"ONEWEB-0430","OBJECT_ID":"2021-132AJ","EPOCH":"2025-11-02T05:29:24.518400","MEAN_MOTION":13.18687441,"ECCENTRICITY":0.00020928,"INCLINATION":87.923,"RA_OF_ASC_NODE":20.5329,"ARG_OF_PERICENTER":97.8786,"MEAN_ANOMALY":262.2583,"EPHEMERIS_TYPE":0,"CLASSIFICATION_TYPE":"U","NORAD_CAT_ID":50501,"ELEMENT_SET_NO":999,"REV_AT_EPOCH":19171,"BSTAR":8.7036108e-5,"MEAN_MOTION_DOT":4.7e-7,"MEAN_MOTION_DDOT":0},{"OBJECT_NAME":"ONEWEB-0432","OBJECT_ID":"2021-132AK","EPOCH":"2025-11-03T15:01:36.714432","MEAN_MOTION":13.18671866,"ECCENTRICITY":0.0001928,"INCLINATION":87.9222,"RA_OF_ASC_NODE":20.2301,"ARG_OF_PERICENTER":72.2795,"MEAN_ANOMALY":287.8547,"EPHEMERIS_TYPE":0,"CLASSIFICATION_TYPE":"U","NORAD_CAT_ID":50502,"ELEMENT_SET_NO":999,"REV_AT_EPOCH":19185,"BSTAR":0.00017956,"MEAN_MOTION_DOT":8.4e-7,"MEAN_MOTION_DDOT":0},{"OBJECT_NAME":"ONEWEB-0440","OBJECT_ID":"2021-132AL","EPOCH":"2025-11-02T11:25:42.060000","MEAN_MOTION":13.1868616,"ECCENTRICITY":0.000185,"INCLINATION":87.9229,"RA_OF_ASC_NODE":20.4745,"ARG_OF_PERICENTER":112.91,"MEAN_ANOMALY":247.2227,"EPHEMERIS_TYPE":0,"CLASSIFICATION_TYPE":"U","NORAD_CAT_ID":50503,"ELEMENT_SET_NO":999,"REV_AT_EPOCH":19169,"BSTAR":0.00019325,"MEAN_MOTION_DOT":8.9e-7,"MEAN_MOTION_DDOT":0},{"OBJECT_NAME":"ONEWEB-0450","OBJECT_ID":"2021-132AM","EPOCH":"2025-11-02T11:16:22.910304","MEAN_MOTION":13.18684215,"ECCENTRICITY":0.0002137,"INCLINATION":87.9228,"RA_OF_ASC_NODE":20.4991,"ARG_OF_PERICENTER":103.6999,"MEAN_ANOMALY":256.4371,"EPHEMERIS_TYPE":0,"CLASSIFICATION_TYPE":"U","NORAD_CAT_ID":50504,"ELEMENT_SET_NO":999,"REV_AT_EPOCH":19172,"BSTAR":-8.5968e-6,"MEAN_MOTION_DOT":1.0e-7,"MEAN_MOTION_DDOT":0},{"OBJECT_NAME":"ONEWEB-0410","OBJECT_ID":"2022-012A","EPOCH":"2025-11-03T16:29:04.371360","MEAN_MOTION":13.17650512,"ECCENTRICITY":6.99e-5,"INCLINATION":87.9137,"RA_OF_ASC_NODE":50.6817,"ARG_OF_PERICENTER":45.0666,"MEAN_ANOMALY":315.0522,"EPHEMERIS_TYPE":0,"CLASSIFICATION_TYPE":"U","NORAD_CAT_ID":51622,"ELEMENT_SET_NO":999,"REV_AT_EPOCH":18400,"BSTAR":-6.9174e-5,"MEAN_MOTION_DOT":-1.4e-7,"MEAN_MOTION_DDOT":0}]
