ONEWEB-0412             
1 50489U 21132W   25306.46132218  .00000056  00000+0  11030-3 0  9996
2 50489  87.9230  20.4861 0001754 112.5379 247.5939 13.18686659191770
ONEWEB-0413             
1 50490U 21132X   25306.46628081  .00000077  00000+0  16373-3 0  9994
2 50490  87.9215  20.5013 0001936 110.9109 249.2231 13.18687167191713
ONEWEB-0414             
1 50491U 21132Y   25306.45143551  .00000021  00000+0  20756-4 0  9998
2 50491  87.9228  20.4639 0001659 105.8798 254.2517 13.18687491191746
ONEWEB-0417             
1 50492U 21132Z   25307.59783187  .00000032  00000+0  48529-4 0  9990
2 50492  87.9231  20.2703 0001667  94.7561 265.3762 13.18687424191879
ONEWEB-0418             
1 50493U 21132AA  25307.68347330  .00000009  00000+0 -88661-5 0  9994
2 50493  87.9230  20.2385 0001519  86.4714 273.6592 13.18687000191940
ONEWEB-0419             
1 50494U 21132AB  25307.62587281  .00000065  00000+0  13172-3 0  9994
2 50494  87.9228  20.2498 0001849  91.0108 269.1236 13.18686524191853
ONEWEB-0420             
1 50495U 21132AC  25306.45308800 -.00000005  00000+0 -44793-4 0  9993
2 50495  87.9230  20.4937 0002098 108.6215 251.5145 13.18687255191696
ONEWEB-0421             
1 50496U 21132AD  25307.58463686 -.00000072  00000+0 -21455-3 0  9996
2 50496  87.9226  20.2627 0001615 109.7541 250.3765 13.18686052191884
ONEWEB-0424             
1 50497U 21132AE  25306.48278074  .00000027  00000+0  36071-4 0  9999
2 50497  87.9225  20.4769 0002115  91.1965 268.9409 13.18685878191765
ONEWEB-0426             
1 50498U 21132AF  25307.65720693 -.00000018  00000+0 -79147-4 0  9992
2 50498  87.9225  20.2348 0001103 106.3305 253.7949 13.18688049191865
ONEWEB-0427             
1 50499U 21132AG  25306.48111455  .00000079  00000+0  16855-3 0  9994
2 50499  87.9222  20.4568 0001747  94.5968 265.5364 13.18687247191733
ONEWEB-0429             
1 50500U 21132AH  25306.46793205  .00000156  00000+0  36213-3 0  9990
2 50500  87.9224  20.4907 0001979 102.5089 257.6264 13.18687699191705
ONEWEB-0430             
1 50501U 21132AJ  25306.22875600  .00000047  00000+0  87036-4 0  9994
2 50501  87.9230  20.5329 0002092  97.8786 262.2583 13.18687441191711
ONEWEB-0432             
1 50502U 21132AK  25307.62611938  .00000084  00000+0  17956-3 0  9996
2 50502  87.9222  20.2301 0001928  72.2795 287.8547 13.18671866191856
ONEWEB-0440             
1 50503U 21132AL  25306.47618125  .00000089  00000+0  19325-3 0  9991
2 50503  87.9229  20.4745 0001850 112.9100 247.2227 13.18686160191694
ONEWEB-0450             
1 50504U 21132AM  25306.46970961  .00000010  00000+0 -85968-5 0  9993
2 50504  87.9228  20.4991 0002137 103.6999 256.4371 13.18684215191724
ONEWEB-0410             
1 51622U 22012A   25307.68685615 -.00000014  00000+0 -69174-4 0  9992
2 51622  87.9137  50.6817 0000699  45.0666 315.0522 13.17650512184003
